{"type": "FeatureCollection", "features": [ {"type": "Feature", "properties": {"norad_id": 28659, "name": "DIRECTV 8", "group": "intelsat", "lat": -0.04481205086268725, "lon": -104.72850124547233, "alt_km": 35775.4704940887, "timestamp": "2025-12-21T18:54:58.160829+00:00", "meta": {"OBJECT_NAME": "DIRECTV 8", "OBJECT_ID": "2005-019A", "EPOCH": "2025-12-21T12:39:28.378656", "MEAN_MOTION": 1.00270142, "ECCENTRICITY": 0.00029327, "INCLINATION": 0.0251, "RA_OF_ASC_NODE": 19.451, "ARG_OF_PERICENTER": 262.9428, "MEAN_ANOMALY": 238.7715, "EPHEMERIS_TYPE": 0, "CLASSIFICATION_TYPE": "U", "NORAD_CAT_ID": 28659, "ELEMENT_SET_NO": 999, "REV_AT_EPOCH": 7529, "BSTAR": 0, "MEAN_MOTION_DOT": 0, "MEAN_MOTION_DDOT": 0}, "tle": {"line1": "1 28659U 05019A   25355.52741179  .00000000  00000+0  00000+0 0  9999", "line2": "2 28659   0.0251  19.4510 0002932 262.9428 238.7715  1.00270142 75292"}}, "geometry": {"type": "Point", "coordinates": [-104.72850124547233, -0.04481205086268725]}}, {"type": "Feature", "properties": {"norad_id": 28702, "name": "GALAXY 28 (G-28)", "group": "intelsat", "lat": -1.2037746566938976, "lon": -74.36711519814583, "alt_km": 35774.299685562895, "timestamp": "2025-12-21T18:54:58.160855+00:00", "meta": {"OBJECT_NAME": "GALAXY 28 (G-28)", "OBJECT_ID": "2005-022A", "EPOCH": "2025-12-20T00:49:30.482112", "MEAN_MOTION": 1.00271047, "ECCENTRICITY": 0.00029384, "INCLINATION": 2.8382, "RA_OF_ASC_NODE": 81.1982, "ARG_OF_PERICENTER": 194.0723, "MEAN_ANOMALY": 97.2981, "EPHEMERIS_TYPE": 0, "CLASSIFICATION_TYPE": "U", "NORAD_CAT_ID": 28702, "ELEMENT_SET_NO": 999, "REV_AT_EPOCH": 5017, "BSTAR": 0, "MEAN_MOTION_DOT": -1.65e-06, "MEAN_MOTION_DDOT": 0}, "tle": {"line1": "1 28702U 05022A   25354.03438058 -.00000165  00000+0  00000+0 0  9999", "line2": "2 28702   2.8382  81.1982 0002938 194.0723  97.2981  1.00271047 50172"}}, "geometry": {"type": "Point", "coordinates": [-74.36711519814583, -1.2037746566938976]}}, {"type": "Feature", "properties": {"norad_id": 29236, "name": "GALAXY 16 (G-16)", "group": "intelsat", "lat": 0.011797188729950704, "lon": -84.6693015587709, "alt_km": 35775.76794706668, "timestamp": "2025-12-21T18:54:58.160870+00:00", "meta": {"OBJECT_NAME": "GALAXY 16 (G-16)", "OBJECT_ID": "2006-023A", "EPOCH": "2025-12-21T12:50:45.225024", "MEAN_MOTION": 1.00270879, "ECCENTRICITY": 0.0002496, "INCLINATION": 0.0135, "RA_OF_ASC_NODE": 164.934, "ARG_OF_PERICENTER": 108.8005, "MEAN_ANOMALY": 270.3011, "EPHEMERIS_TYPE": 0, "CLASSIFICATION_TYPE": "U", "NORAD_CAT_ID": 29236, "ELEMENT_SET_NO": 999, "REV_AT_EPOCH": 7119, "BSTAR": 0, "MEAN_MOTION_DOT": -1.04e-06, "MEAN_MOTION_DDOT": 0}, "tle": {"line1": "1 29236U 06023A   25355.53524566 -.00000104  00000+0  00000+0 0  9993", "line2": "2 29236   0.0135 164.9340 0002496 108.8005 270.3011  1.00270879 71199"}}, "geometry": {"type": "Point", "coordinates": [-84.6693015587709, 0.011797188729950704]}}, {"type": "Feature", "properties": {"norad_id": 29494, "name": "DIRECTV 9S", "group": "intelsat", "lat": -0.3673373079761727, "lon": -86.87905864641664, "alt_km": 35774.15206177269, "timestamp": "2025-12-21T18:54:58.160882+00:00", "meta": {"OBJECT_NAME": "DIRECTV 9S", "OBJECT_ID": "2006-043A", "EPOCH": "2025-12-21T12:49:55.974432", "MEAN_MOTION": 1.0027151, "ECCENTRICITY": 0.00028511, "INCLINATION": 1.9615, "RA_OF_ASC_NODE": 83.1209, "ARG_OF_PERICENTER": 193.3842, "MEAN_ANOMALY": 265.1198, "EPHEMERIS_TYPE": 0, "CLASSIFICATION_TYPE": "U", "NORAD_CAT_ID": 29494, "ELEMENT_SET_NO": 999, "REV_AT_EPOCH": 4960, "BSTAR": 0, "MEAN_MOTION_DOT": -9.2e-07, "MEAN_MOTION_DDOT": 0}, "tle": {"line1": "1 29494U 06043A   25355.53467563 -.00000092  00000+0  00000+0 0  9990", "line2": "2 29494   1.9615  83.1209 0002851 193.3842 265.1198  1.00271510 49609"}}, "geometry": {"type": "Point", "coordinates": [-86.87905864641664, -0.3673373079761727]}}, {"type": "Feature", "properties": {"norad_id": 31307, "name": "GALAXY 17 (G-17)", "group": "intelsat", "lat": -1.1785756372924407, "lon": -70.62228267314217, "alt_km": 35768.58040336637, "timestamp": "2025-12-21T18:54:58.160893+00:00", "meta": {"OBJECT_NAME": "GALAXY 17 (G-17)", "OBJECT_ID": "2007-016B", "EPOCH": "2025-12-21T12:03:49.880160", "MEAN_MOTION": 1.00270125, "ECCENTRICITY": 0.00053417, "INCLINATION": 2.5205, "RA_OF_ASC_NODE": 82.1873, "ARG_OF_PERICENTER": 170.3583, "MEAN_ANOMALY": 293.758, "EPHEMERIS_TYPE": 0, "CLASSIFICATION_TYPE": "U", "NORAD_CAT_ID": 31307, "ELEMENT_SET_NO": 999, "REV_AT_EPOCH": 6802, "BSTAR": 0, "MEAN_MOTION_DOT": -1.85e-06, "MEAN_MOTION_DDOT": 0}, "tle": {"line1": "1 31307U 07016B   25355.50266065 -.00000185  00000+0  00000+0 0  9991", "line2": "2 31307   2.5205  82.1873 0005341 170.3583 293.7580  1.00270125 68027"}}, "geometry": {"type": "Point", "coordinates": [-70.62228267314217, -1.1785756372924407]}}, {"type": "Feature", "properties": {"norad_id": 31862, "name": "DIRECTV 10", "group": "intelsat", "lat": -0.0004370531375317473, "lon": -88.46807238876224, "alt_km": 35786.30631203182, "timestamp": "2025-12-21T18:54:58.160905+00:00", "meta": {"OBJECT_NAME": "DIRECTV 10", "OBJECT_ID": "2007-032A", "EPOCH": "2025-12-20T21:18:05.647104", "MEAN_MOTION": 1.00270377, "ECCENTRICITY": 2.73e-05, "INCLINATION": 0.0073, "RA_OF_ASC_NODE": 111.6707, "ARG_OF_PERICENTER": 78.7977, "MEAN_ANOMALY": 115.9664, "EPHEMERIS_TYPE": 0, "CLASSIFICATION_TYPE": "U", "NORAD_CAT_ID": 31862, "ELEMENT_SET_NO": 999, "REV_AT_EPOCH": 4380, "BSTAR": 0, "MEAN_MOTION_DOT": -8e-07, "MEAN_MOTION_DDOT": 0}, "tle": {"line1": "1 31862U 07032A   25354.88756536 -.00000080  00000+0  00000+0 0  9996", "line2": "2 31862   0.0073 111.6707 0000273  78.7977 115.9664  1.00270377 43806"}}, "geometry": {"type": "Point", "coordinates": [-88.46807238876224, -0.0004370531375317473]}}, {"type": "Feature", "properties": {"norad_id": 32253, "name": "INTELSAT 11 (IS-11)", "group": "intelsat", "lat": 2.7002653880814806, "lon": -159.79837026820746, "alt_km": 36107.73215263041, "timestamp": "2025-12-21T18:54:58.160916+00:00", "meta": {"OBJECT_NAME": "INTELSAT 11 (IS-11)", "OBJECT_ID": "2007-044B", "EPOCH": "2025-12-21T12:13:38.810208", "MEAN_MOTION": 0.99052571, "ECCENTRICITY": 0.00085338, "INCLINATION": 3.1016, "RA_OF_ASC_NODE": 80.8798, "ARG_OF_PERICENTER": 169.3965, "MEAN_ANOMALY": 210.5858, "EPHEMERIS_TYPE": 0, "CLASSIFICATION_TYPE": "U", "NORAD_CAT_ID": 32253, "ELEMENT_SET_NO": 999, "REV_AT_EPOCH": 6669, "BSTAR": 0, "MEAN_MOTION_DOT": -9.1e-07, "MEAN_MOTION_DDOT": 0}, "tle": {"line1": "1 32253U 07044B   25355.50947697 -.00000091  00000+0  00000+0 0  9996", "line2": "2 32253   3.1016  80.8798 0008533 169.3965 210.5858  0.99052571 66690"}}, "geometry": {"type": "Point", "coordinates": [-159.79837026820746, 2.7002653880814806]}}, {"type": "Feature", "properties": {"norad_id": 32388, "name": "HORIZONS-2", "group": "intelsat", "lat": -1.3352714646569752, "lon": -59.44238023856384, "alt_km": 35768.4703865033, "timestamp": "2025-12-21T18:54:58.160927+00:00", "meta": {"OBJECT_NAME": "HORIZONS-2", "OBJECT_ID": "2007-063B", "EPOCH": "2025-12-21T13:04:20.930880", "MEAN_MOTION": 1.00271247, "ECCENTRICITY": 0.00046131, "INCLINATION": 2.1431, "RA_OF_ASC_NODE": 82.8666, "ARG_OF_PERICENTER": 194.5159, "MEAN_ANOMALY": 295.2836, "EPHEMERIS_TYPE": 0, "CLASSIFICATION_TYPE": "U", "NORAD_CAT_ID": 32388, "ELEMENT_SET_NO": 999, "REV_AT_EPOCH": 6603, "BSTAR": 0, "MEAN_MOTION_DOT": -2.32e-06, "MEAN_MOTION_DDOT": 0}, "tle": {"line1": "1 32388U 07063B   25355.54468670 -.00000232  00000+0  00000+0 0  9996", "line2": "2 32388   2.1431  82.8666 0004613 194.5159 295.2836  1.00271247 66035"}}, "geometry": {"type": "Point", "coordinates": [-59.44238023856384, -1.3352714646569752]}}, {"type": "Feature", "properties": {"norad_id": 32729, "name": "DIRECTV 11", "group": "intelsat", "lat": -0.020506067690238095, "lon": -84.85314599690238, "alt_km": 35787.17217111429, "timestamp": "2025-12-21T18:54:58.160939+00:00", "meta": {"OBJECT_NAME": "DIRECTV 11", "OBJECT_ID": "2008-013A", "EPOCH": "2025-12-21T08:20:59.119872", "MEAN_MOTION": 1.00270364, "ECCENTRICITY": 4.543e-05, "INCLINATION": 0.0491, "RA_OF_ASC_NODE": 186.3894, "ARG_OF_PERICENTER": 338.0955, "MEAN_ANOMALY": 311.7374, "EPHEMERIS_TYPE": 0, "CLASSIFICATION_TYPE": "U", "NORAD_CAT_ID": 32729, "ELEMENT_SET_NO": 999, "REV_AT_EPOCH": 4381, "BSTAR": 0, "MEAN_MOTION_DOT": -1.03e-06, "MEAN_MOTION_DDOT": 0}, "tle": {"line1": "1 32729U 08013A   25355.34790648 -.00000103  00000+0  00000+0 0  9999", "line2": "2 32729   0.0491 186.3894 0000454 338.0955 311.7374  1.00270364 43819"}}, "geometry": {"type": "Point", "coordinates": [-84.85314599690238, -0.020506067690238095]}}, {"type": "Feature", "properties": {"norad_id": 32951, "name": "GALAXY 18 (G-18)", "group": "intelsat", "lat": -0.019341864029521396, "lon": -108.68867821158916, "alt_km": 35775.226145474866, "timestamp": "2025-12-21T18:54:58.160950+00:00", "meta": {"OBJECT_NAME": "GALAXY 18 (G-18)", "OBJECT_ID": "2008-024A", "EPOCH": "2025-12-21T08:40:28.062624", "MEAN_MOTION": 1.00271198, "ECCENTRICITY": 0.00028473, "INCLINATION": 0.0183, "RA_OF_ASC_NODE": 61.6385, "ARG_OF_PERICENTER": 214.0045, "MEAN_ANOMALY": 181.6446, "EPHEMERIS_TYPE": 0, "CLASSIFICATION_TYPE": "U", "NORAD_CAT_ID": 32951, "ELEMENT_SET_NO": 999, "REV_AT_EPOCH": 4407, "BSTAR": 0, "MEAN_MOTION_DOT": 4.8e-07, "MEAN_MOTION_DDOT": 0}, "tle": {"line1": "1 32951U 08024A   25355.36143591  .00000048  00000+0  00000+0 0  9996", "line2": "2 32951   0.0183  61.6385 0002847 214.0045 181.6446  1.00271198 44074"}}, "geometry": {"type": "Point", "coordinates": [-108.68867821158916, -0.019341864029521396]}}]}